{
    "links": {
        "self": "http://www.neowsapp.com/rest/v1/neo/3427523?api_key=iIulBulltgU6a56xZRHN4H3l9WmuAYTsLGpBGhQ2"
    },
    "id": "3427523",
    "neo_reference_id": "3427523",
    "name": "(2008 ST1)",
    "designation": "2008 ST1",
    "nasa_jpl_url": "http://ssd.jpl.nasa.gov/sbdb.cgi?sstr=3427523",
    "absolute_magnitude_h": 27.2,
    "estimated_diameter": {
        "kilometers": {
            "estimated_diameter_min": 0.0096506147,
            "estimated_diameter_max": 0.0215794305
        },
        "meters": {
            "estimated_diameter_min": 9.6506146958,
            "estimated_diameter_max": 21.5794304844
        },
        "miles": {
            "estimated_diameter_min": 0.0059966121,
            "estimated_diameter_max": 0.0134088323
        },
        "feet": {
            "estimated_diameter_min": 31.6621227185,
            "estimated_diameter_max": 70.7986587106
        }
    },
    "is_potentially_hazardous_asteroid": false,
    "close_approach_data": [
        {
            "close_approach_date": "1955-11-15",
            "close_approach_date_full": "1955-Nov-15 23:53",
            "epoch_date_close_approach": -445824420000,
            "relative_velocity": {
                "kilometers_per_second": "5.4360445426",
                "kilometers_per_hour": "19569.7603532018",
                "miles_per_hour": "12159.8880372437"
            },
            "miss_distance": {
                "astronomical": "0.0420515056",
                "lunar": "16.3580356784",
                "kilometers": "6290815.668053072",
                "miles": "3908931.5965615136"
            },
            "orbiting_body": "Mars"
        },
        {
            "close_approach_date": "2008-09-20",
            "close_approach_date_full": "2008-Sep-20 14:14",
            "epoch_date_close_approach": 1221920040000,
            "relative_velocity": {
                "kilometers_per_second": "7.7517912661",
                "kilometers_per_hour": "27906.4485579939",
                "miles_per_hour": "17339.9818831602"
            },
            "miss_distance": {
                "astronomical": "0.0038474112",
                "lunar": "1.4966429568",
                "kilometers": "575564.520534144",
                "miles": "357639.2091094272"
            },
            "orbiting_body": "Earth"
        },
        {
            "close_approach_date": "2008-09-20",
            "close_approach_date_full": "2008-Sep-20 19:53",
            "epoch_date_close_approach": 1221940380000,
            "relative_velocity": {
                "kilometers_per_second": "8.296262957",
                "kilometers_per_hour": "29866.5466450621",
                "miles_per_hour": "18557.9106084276"
            },
            "miss_distance": {
                "astronomical": "0.0029409002",
                "lunar": "1.1440101778",
                "kilometers": "439952.405802574",
                "miles": "273373.7484565612"
            },
            "orbiting_body": "Moon"
        }
    ],
    "orbital_data": {
        "orbit_id": "11",
        "orbit_determination_date": "2017-04-06 09:02:53",
        "first_observation_date": "2008-09-22",
        "last_observation_date": "2008-09-25",
        "data_arc_in_days": 3,
        "observations_used": 11,
        "orbit_uncertainty": "8",
        "minimum_orbit_intersection": ".00360892",
        "jupiter_tisserand_invariant": "4.739",
        "epoch_osculation": "2454733.5",
        "eccentricity": ".3012096996340292",
        "semi_major_axis": "1.381292108080535",
        "inclination": "8.576811249509415",
        "ascending_node_longitude": "179.0597762245278",
        "orbital_period": "592.96180906725",
        "perihelion_distance": ".9652335270987421",
        "perihelion_argument": "144.3674978781704",
        "aphelion_distance": "1.797350689062328",
        "perihelion_time": "2454700.163522097460",
        "mean_anomaly": "20.23930017313022",
        "mean_motion": ".6071217311048966",
        "equinox": "J2000",
        "orbit_class": {
            "orbit_class_type": "APO",
            "orbit_class_description": "Near-Earth asteroid orbits which cross the Earth’s orbit similar to that of 1862 Apollo",
            "orbit_class_range": "a (semi-major axis) > 1.0 AU; q (perihelion) < 1.017 AU"
        }
    },
    "is_sentry_object": false
}